LVM3 R/B                
1 66310U 25249A   25333.75164161  .00045516  41959-6  12597-2 0  9996
2 66310  21.3457 144.9172 6669654 206.3917  93.2369  3.14125252   870
ELECTRON R/B            
1 66317U 25252B   25333.88053485  .01669799  79110-5  19143-2 0  9996
2 66317  41.9889 130.1303 0124669  46.1701 314.9386 15.94243293  3786
ELECTRON KICK STAGE R/B 
1 66318U 25252C   25332.83449743  .04297845  78551-5  18407-2 0  9999
2 66318  41.9729 135.2417 0075856 196.8169 163.0180 16.14662358  3635
CZ-11 DEB               
1 66377U 25255B   25333.85001750  .00037230  00000+0  82832-3 0  9990
2 66377  52.9962 239.2229 0014026   0.0752   0.0252 15.43210548  3229
SHIYAN-32 03            
1 66379U 25255D   25333.85431836  .00018319  00000+0  42349-3 0  9990
2 66379  52.9970 239.2508 0015337   3.3447 356.7657 15.42465543  3241
ZK-1A R/B               
1 66411U 25256C   25324.72402141  .00011214  00000+0  48988-3 0  9993
2 66411  98.3243  30.9055 0232353 318.4537  39.9225 15.01236100  1741
CZ-12 R/B               
1 66421U 25258K   25333.27879624 -.00000088  00000+0  24340-4 0  9995
2 66421  49.9957 316.3592 0064604 201.0382 158.7879 14.42314254  2770
ATLAS 5 CENTAUR R/B     
1 66455U 25261B   25330.76889782 -.00000052  00000+0  00000+0 0  9996
2 66455   6.1673 293.2138 2329931 183.2713 340.9993  2.28258333   286
