{
  "type": "FeatureCollection",
  "features": [
    {
      "type": "Feature",
      "properties": {
        "OBJECT_NAME": "LVM3 R/B",
        "OBJECT_ID": "2025-249A",
        "EPOCH": "2025-11-29T18:02:21.835104",
        "MEAN_MOTION": 3.14125252,
        "ECCENTRICITY": 0.6669654,
        "INCLINATION": 21.3457,
        "RA_OF_ASC_NODE": 144.9172,
        "ARG_OF_PERICENTER": 206.3917,
        "MEAN_ANOMALY": 93.2369,
        "EPHEMERIS_TYPE": 0,
        "CLASSIFICATION_TYPE": "U",
        "NORAD_CAT_ID": 66310,
        "ELEMENT_SET_NO": 999,
        "REV_AT_EPOCH": 87,
        "BSTAR": 0.0012597,
        "MEAN_MOTION_DOT": 0.00045516,
        "MEAN_MOTION_DDOT": 4.1959e-07,
        "norad_id": 66310,
        "name": "LVM3 R/B",
        "group": "last-30-days",
        "longitude_deg": NaN,
        "latitude_deg": NaN,
        "alt_km": NaN,
        "orbit_class": "HEO",
        "timestamp": "2025-11-30T04:52:16.833789+00:00"
      },
      "geometry": {
        "type": "Point",
        "coordinates": [
          NaN,
          NaN
        ]
      }
    },
    {
      "type": "Feature",
      "properties": {
        "OBJECT_NAME": "ELECTRON R/B",
        "OBJECT_ID": "2025-252B",
        "EPOCH": "2025-11-29T21:07:58.211040",
        "MEAN_MOTION": 15.94243293,
        "ECCENTRICITY": 0.0124669,
        "INCLINATION": 41.9889,
        "RA_OF_ASC_NODE": 130.1303,
        "ARG_OF_PERICENTER": 46.1701,
        "MEAN_ANOMALY": 314.9386,
        "EPHEMERIS_TYPE": 0,
        "CLASSIFICATION_TYPE": "U",
        "NORAD_CAT_ID": 66317,
        "ELEMENT_SET_NO": 999,
        "REV_AT_EPOCH": 378,
        "BSTAR": 0.0019143,
        "MEAN_MOTION_DOT": 0.01669799,
        "MEAN_MOTION_DDOT": 7.911e-06,
        "norad_id": 66317,
        "name": "ELECTRON R/B",
        "group": "last-30-days",
        "longitude_deg": NaN,
        "latitude_deg": NaN,
        "alt_km": NaN,
        "orbit_class": "HEO",
        "timestamp": "2025-11-30T04:52:16.833853+00:00"
      },
      "geometry": {
        "type": "Point",
        "coordinates": [
          NaN,
          NaN
        ]
      }
    },
    {
      "type": "Feature",
      "properties": {
        "OBJECT_NAME": "ELECTRON KICK STAGE R/B",
        "OBJECT_ID": "2025-252C",
        "EPOCH": "2025-11-28T20:01:40.577952",
        "MEAN_MOTION": 16.14662358,
        "ECCENTRICITY": 0.0075856,
        "INCLINATION": 41.9729,
        "RA_OF_ASC_NODE": 135.2417,
        "ARG_OF_PERICENTER": 196.8169,
        "MEAN_ANOMALY": 163.018,
        "EPHEMERIS_TYPE": 0,
        "CLASSIFICATION_TYPE": "U",
        "NORAD_CAT_ID": 66318,
        "ELEMENT_SET_NO": 999,
        "REV_AT_EPOCH": 363,
        "BSTAR": 0.0018407389,
        "MEAN_MOTION_DOT": 0.04297845,
        "MEAN_MOTION_DDOT": 7.855067e-06,
        "norad_id": 66318,
        "name": "ELECTRON KICK STAGE R/B",
        "group": "last-30-days",
        "longitude_deg": NaN,
        "latitude_deg": NaN,
        "alt_km": NaN,
        "orbit_class": "HEO",
        "timestamp": "2025-11-30T04:52:16.833861+00:00"
      },
      "geometry": {
        "type": "Point",
        "coordinates": [
          NaN,
          NaN
        ]
      }
    },
    {
      "type": "Feature",
      "properties": {
        "OBJECT_NAME": "CZ-11 DEB",
        "OBJECT_ID": "2025-255B",
        "EPOCH": "2025-11-29T20:24:01.512000",
        "MEAN_MOTION": 15.43210548,
        "ECCENTRICITY": 0.0014026,
        "INCLINATION": 52.9962,
        "RA_OF_ASC_NODE": 239.2229,
        "ARG_OF_PERICENTER": 0.0752,
        "MEAN_ANOMALY": 0.0252,
        "EPHEMERIS_TYPE": 0,
        "CLASSIFICATION_TYPE": "U",
        "NORAD_CAT_ID": 66377,
        "ELEMENT_SET_NO": 999,
        "REV_AT_EPOCH": 322,
        "BSTAR": 0.00082832,
        "MEAN_MOTION_DOT": 0.0003723,
        "MEAN_MOTION_DDOT": 0,
        "norad_id": 66377,
        "name": "CZ-11 DEB",
        "group": "last-30-days",
        "longitude_deg": NaN,
        "latitude_deg": NaN,
        "alt_km": NaN,
        "orbit_class": "HEO",
        "timestamp": "2025-11-30T04:52:16.834253+00:00"
      },
      "geometry": {
        "type": "Point",
        "coordinates": [
          NaN,
          NaN
        ]
      }
    },
    {
      "type": "Feature",
      "properties": {
        "OBJECT_NAME": "SHIYAN-32 03",
        "OBJECT_ID": "2025-255D",
        "EPOCH": "2025-11-29T20:30:13.106304",
        "MEAN_MOTION": 15.42465543,
        "ECCENTRICITY": 0.0015337,
        "INCLINATION": 52.997,
        "RA_OF_ASC_NODE": 239.2508,
        "ARG_OF_PERICENTER": 3.3447,
        "MEAN_ANOMALY": 356.7657,
        "EPHEMERIS_TYPE": 0,
        "CLASSIFICATION_TYPE": "U",
        "NORAD_CAT_ID": 66379,
        "ELEMENT_SET_NO": 999,
        "REV_AT_EPOCH": 324,
        "BSTAR": 0.00042349,
        "MEAN_MOTION_DOT": 0.00018319,
        "MEAN_MOTION_DDOT": 0,
        "norad_id": 66379,
        "name": "SHIYAN-32 03",
        "group": "last-30-days",
        "longitude_deg": NaN,
        "latitude_deg": NaN,
        "alt_km": NaN,
        "orbit_class": "HEO",
        "timestamp": "2025-11-30T04:52:16.834265+00:00"
      },
      "geometry": {
        "type": "Point",
        "coordinates": [
          NaN,
          NaN
        ]
      }
    },
    {
      "type": "Feature",
      "properties": {
        "OBJECT_NAME": "ZK-1A R/B",
        "OBJECT_ID": "2025-256C",
        "EPOCH": "2025-11-20T17:22:35.449824",
        "MEAN_MOTION": 15.012361,
        "ECCENTRICITY": 0.02323532,
        "INCLINATION": 98.3243,
        "RA_OF_ASC_NODE": 30.9055,
        "ARG_OF_PERICENTER": 318.4537,
        "MEAN_ANOMALY": 39.9225,
        "EPHEMERIS_TYPE": 0,
        "CLASSIFICATION_TYPE": "U",
        "NORAD_CAT_ID": 66411,
        "ELEMENT_SET_NO": 999,
        "REV_AT_EPOCH": 174,
        "BSTAR": 0.00048987823,
        "MEAN_MOTION_DOT": 0.00011214,
        "MEAN_MOTION_DDOT": 0,
        "norad_id": 66411,
        "name": "ZK-1A R/B",
        "group": "last-30-days",
        "longitude_deg": NaN,
        "latitude_deg": NaN,
        "alt_km": NaN,
        "orbit_class": "HEO",
        "timestamp": "2025-11-30T04:52:16.834464+00:00"
      },
      "geometry": {
        "type": "Point",
        "coordinates": [
          NaN,
          NaN
        ]
      }
    },
    {
      "type": "Feature",
      "properties": {
        "OBJECT_NAME": "CZ-12 R/B",
        "OBJECT_ID": "2025-258K",
        "EPOCH": "2025-11-29T06:41:27.995136",
        "MEAN_MOTION": 14.42314254,
        "ECCENTRICITY": 0.00646049,
        "INCLINATION": 49.9957,
        "RA_OF_ASC_NODE": 316.3592,
        "ARG_OF_PERICENTER": 201.0382,
        "MEAN_ANOMALY": 158.7879,
        "EPHEMERIS_TYPE": 0,
        "CLASSIFICATION_TYPE": "U",
        "NORAD_CAT_ID": 66421,
        "ELEMENT_SET_NO": 999,
        "REV_AT_EPOCH": 277,
        "BSTAR": 2.4339908e-05,
        "MEAN_MOTION_DOT": -8.8e-07,
        "MEAN_MOTION_DDOT": 0,
        "norad_id": 66421,
        "name": "CZ-12 R/B",
        "group": "last-30-days",
        "longitude_deg": NaN,
        "latitude_deg": NaN,
        "alt_km": NaN,
        "orbit_class": "HEO",
        "timestamp": "2025-11-30T04:52:16.834530+00:00"
      },
      "geometry": {
        "type": "Point",
        "coordinates": [
          NaN,
          NaN
        ]
      }
    },
    {
      "type": "Feature",
      "properties": {
        "OBJECT_NAME": "ATLAS 5 CENTAUR R/B",
        "OBJECT_ID": "2025-261B",
        "EPOCH": "2025-11-26T18:27:12.771648",
        "MEAN_MOTION": 2.28258333,
        "ECCENTRICITY": 0.23299319,
        "INCLINATION": 6.1673,
        "RA_OF_ASC_NODE": 293.2138,
        "ARG_OF_PERICENTER": 183.2713,
        "MEAN_ANOMALY": 340.9993,
        "EPHEMERIS_TYPE": 0,
        "CLASSIFICATION_TYPE": "U",
        "NORAD_CAT_ID": 66455,
        "ELEMENT_SET_NO": 999,
        "REV_AT_EPOCH": 28,
        "BSTAR": 0,
        "MEAN_MOTION_DOT": -5.2e-07,
        "MEAN_MOTION_DDOT": 0,
        "norad_id": 66455,
        "name": "ATLAS 5 CENTAUR R/B",
        "group": "last-30-days",
        "longitude_deg": NaN,
        "latitude_deg": NaN,
        "alt_km": NaN,
        "orbit_class": "HEO",
        "timestamp": "2025-11-30T04:52:16.834744+00:00"
      },
      "geometry": {
        "type": "Point",
        "coordinates": [
          NaN,
          NaN
        ]
      }
    }
  ]
}